[{"OBJECT_NAME":"SKYCRAFT-4A","OBJECT_ID":"2025-154J","EPOCH":"2026-03-09T16:59:51.135072","MEAN_MOTION":14.95268947,"ECCENTRICITY":0.00048742,"INCLINATION":97.6797,"RA_OF_ASC_NODE":135.107,"ARG_OF_PERICENTER":223.0221,"MEAN_ANOMALY":137.062,"EPHEMERIS_TYPE":0,"CLASSIFICATION_TYPE":"U","NORAD_CAT_ID":64897,"ELEMENT_SET_NO":999,"REV_AT_EPOCH":3251,"BSTAR":0.00074813792,"MEAN_MOTION_DOT":8.187e-5,"MEAN_MOTION_DDOT":0},{"OBJECT_NAME":"THOR ABLESTAR R\/B","OBJECT_ID":"1960-007C","EPOCH":"2026-03-09T22:37:45.213888","MEAN_MOTION":14.45192104,"ECCENTRICITY":0.02227051,"INCLINATION":66.6656,"RA_OF_ASC_NODE":313.2953,"ARG_OF_PERICENTER":212.46,"MEAN_ANOMALY":146.2649,"EPHEMERIS_TYPE":0,"CLASSIFICATION_TYPE":"U","NORAD_CAT_ID":47,"ELEMENT_SET_NO":999,"REV_AT_EPOCH":43646,"BSTAR":0.00011233029,"MEAN_MOTION_DOT":4.2e-6,"MEAN_MOTION_DDOT":0}]
